[{"OBJECT_NAME":"STARLINK-34996","OBJECT_ID":"2025-176AB","EPOCH":"2026-03-09T12:24:39.098016","MEAN_MOTION":15.30177434,"ECCENTRICITY":0.00012545,"INCLINATION":53.1572,"RA_OF_ASC_NODE":153.5555,"ARG_OF_PERICENTER":95.2899,"MEAN_ANOMALY":264.8244,"EPHEMERIS_TYPE":0,"CLASSIFICATION_TYPE":"U","NORAD_CAT_ID":65223,"ELEMENT_SET_NO":999,"REV_AT_EPOCH":3309,"BSTAR":0.001334785,"MEAN_MOTION_DOT":0.00039355,"MEAN_MOTION_DDOT":0},{"OBJECT_NAME":"CP5","OBJECT_ID":"2012-048F","EPOCH":"2026-03-09T13:13:18.209280","MEAN_MOTION":15.25131456,"ECCENTRICITY":0.0097184,"INCLINATION":64.6452,"RA_OF_ASC_NODE":121.238,"ARG_OF_PERICENTER":206.221,"MEAN_ANOMALY":153.3981,"EPHEMERIS_TYPE":0,"CLASSIFICATION_TYPE":"U","NORAD_CAT_ID":38763,"ELEMENT_SET_NO":999,"REV_AT_EPOCH":10155,"BSTAR":0.00057686,"MEAN_MOTION_DOT":0.00016437,"MEAN_MOTION_DDOT":0}]
